{"fetched_at":"2026-03-29T16:36:15Z","count":15609,"tles":[{"name":"KUIPER-00141","line1":"1 65966U 25228V   26087.72654689  .00004442  00000+0  61158-3 0  9998","line2":"2 65966  51.9024 256.5108 0000515  82.5294 277.5727 14.79911298 26324","category":"Other"}]}